[{"OBJECT_NAME":"STARLINK-5517","OBJECT_ID":"2023-094AH","EPOCH":"2026-03-09T22:00:01.999584","MEAN_MOTION":15.06174894,"ECCENTRICITY":0.00017485,"INCLINATION":43.0006,"RA_OF_ASC_NODE":16.2331,"ARG_OF_PERICENTER":245.5807,"MEAN_ANOMALY":47.0614,"EPHEMERIS_TYPE":0,"CLASSIFICATION_TYPE":"U","NORAD_CAT_ID":57249,"ELEMENT_SET_NO":999,"REV_AT_EPOCH":567,"BSTAR":0.002187207,"MEAN_MOTION_DOT":0.00032509,"MEAN_MOTION_DDOT":0},{"OBJECT_NAME":"RAISE-4","OBJECT_ID":"2025-297B","EPOCH":"2026-03-09T23:25:57.718272","MEAN_MOTION":15.08174958,"ECCENTRICITY":0.00127133,"INCLINATION":97.4953,"RA_OF_ASC_NODE":219.2703,"ARG_OF_PERICENTER":22.7159,"MEAN_ANOMALY":337.4629,"EPHEMERIS_TYPE":0,"CLASSIFICATION_TYPE":"U","NORAD_CAT_ID":67073,"ELEMENT_SET_NO":999,"REV_AT_EPOCH":1293,"BSTAR":0.00037087145,"MEAN_MOTION_DOT":5.682e-5,"MEAN_MOTION_DDOT":0}]
